{"type": "FeatureCollection", "features": [ {"type": "Feature", "properties": {"norad_id": 37834, "name": "INTELSAT 18 (IS-18)", "group": "intelsat", "lat": -0.0005021226428319849, "lon": -50.01351487583562, "alt_km": 35782.583175193584, "timestamp": "2025-12-01T03:58:49.229582+00:00", "meta": {"OBJECT_NAME": "INTELSAT 18 (IS-18)", "OBJECT_ID": "2011-056A", "EPOCH": "2025-11-30T18:07:26.956704", "MEAN_MOTION": 1.00270632, "ECCENTRICITY": 0.0001965, "INCLINATION": 0.0174, "RA_OF_ASC_NODE": 313.6651, "ARG_OF_PERICENTER": 293.4312, "MEAN_ANOMALY": 274.6543, "EPHEMERIS_TYPE": 0, "CLASSIFICATION_TYPE": "U", "NORAD_CAT_ID": 37834, "ELEMENT_SET_NO": 999, "REV_AT_EPOCH": 5182, "BSTAR": 0, "MEAN_MOTION_DOT": 7.5e-07, "MEAN_MOTION_DDOT": 0, "GROUP": "intelsat"}, "tle": {"line1": "1 37834U 11056A   25334.75517311  .00000075  00000+0  00000+0 0  9995", "line2": "2 37834   0.0174 313.6651 0001965 293.4312 274.6543  1.00270632 51827"}}, "geometry": {"type": "Point", "coordinates": [-50.01351487583562, -0.0005021226428319849]}}, {"type": "Feature", "properties": {"norad_id": 38098, "name": "INTELSAT 22 (IS-22)", "group": "intelsat", "lat": -0.02985216980416417, "lon": -157.94530453880918, "alt_km": 35781.75292271888, "timestamp": "2025-12-01T03:58:49.229598+00:00", "meta": {"OBJECT_NAME": "INTELSAT 22 (IS-22)", "OBJECT_ID": "2012-011A", "EPOCH": "2025-11-30T19:19:24.018240", "MEAN_MOTION": 1.00271737, "ECCENTRICITY": 0.0001723, "INCLINATION": 0.014, "RA_OF_ASC_NODE": 328.6942, "ARG_OF_PERICENTER": 286.9176, "MEAN_ANOMALY": 176.2785, "EPHEMERIS_TYPE": 0, "CLASSIFICATION_TYPE": "U", "NORAD_CAT_ID": 38098, "ELEMENT_SET_NO": 999, "REV_AT_EPOCH": 519, "BSTAR": 0, "MEAN_MOTION_DOT": -3.7e-07, "MEAN_MOTION_DDOT": 0, "GROUP": "intelsat"}, "tle": {"line1": "1 38098U 12011A   25334.80513910 -.00000037  00000+0  00000+0 0  9996", "line2": "2 38098   0.0140 328.6942 0001723 286.9176 176.2785  1.00271737  5190"}}, "geometry": {"type": "Point", "coordinates": [-157.94530453880918, -0.02985216980416417]}}, {"type": "Feature", "properties": {"norad_id": 38356, "name": "INTELSAT 19 (IS-19)", "group": "intelsat", "lat": -0.007033957584393707, "lon": -63.992381062859266, "alt_km": 35775.43095296437, "timestamp": "2025-12-01T03:58:49.229611+00:00", "meta": {"OBJECT_NAME": "INTELSAT 19 (IS-19)", "OBJECT_ID": "2012-030A", "EPOCH": "2025-11-30T18:03:27.340128", "MEAN_MOTION": 1.00271665, "ECCENTRICITY": 0.0003327, "INCLINATION": 0.0136, "RA_OF_ASC_NODE": 309.0537, "ARG_OF_PERICENTER": 306.3359, "MEAN_ANOMALY": 251.3747, "EPHEMERIS_TYPE": 0, "CLASSIFICATION_TYPE": "U", "NORAD_CAT_ID": 38356, "ELEMENT_SET_NO": 999, "REV_AT_EPOCH": 4846, "BSTAR": 0, "MEAN_MOTION_DOT": -3.4e-07, "MEAN_MOTION_DDOT": 0, "GROUP": "intelsat"}, "tle": {"line1": "1 38356U 12030A   25334.75239977 -.00000034  00000+0  00000+0 0  9993", "line2": "2 38356   0.0136 309.0537 0003327 306.3359 251.3747  1.00271665 48467"}}, "geometry": {"type": "Point", "coordinates": [-63.992381062859266, -0.007033957584393707]}}, {"type": "Feature", "properties": {"norad_id": 38740, "name": "INTELSAT 20 (IS-20)", "group": "intelsat", "lat": -0.011130077369688395, "lon": -161.51994411821101, "alt_km": 35774.53930615755, "timestamp": "2025-12-01T03:58:49.229624+00:00", "meta": {"OBJECT_NAME": "INTELSAT 20 (IS-20)", "OBJECT_ID": "2012-043A", "EPOCH": "2025-11-30T19:18:24.112800", "MEAN_MOTION": 1.00270589, "ECCENTRICITY": 0.0002885, "INCLINATION": 0.0014, "RA_OF_ASC_NODE": 0.1559, "ARG_OF_PERICENTER": 185.8784, "MEAN_ANOMALY": 242.0096, "EPHEMERIS_TYPE": 0, "CLASSIFICATION_TYPE": "U", "NORAD_CAT_ID": 38740, "ELEMENT_SET_NO": 999, "REV_AT_EPOCH": 4875, "BSTAR": 0, "MEAN_MOTION_DOT": -3e-08, "MEAN_MOTION_DDOT": 0, "GROUP": "intelsat"}, "tle": {"line1": "1 38740U 12043A   25334.80444575 -.00000003  00000+0  00000+0 0  9998", "line2": "2 38740   0.0014   0.1559 0002885 185.8784 242.0096  1.00270589 48752"}}, "geometry": {"type": "Point", "coordinates": [-161.51994411821101, -0.011130077369688395]}}, {"type": "Feature", "properties": {"norad_id": 38749, "name": "INTELSAT 21 (IS-21)", "group": "intelsat", "lat": 0.00713303563963756, "lon": 71.96872109190733, "alt_km": 35794.78708077508, "timestamp": "2025-12-01T03:58:49.229636+00:00", "meta": {"OBJECT_NAME": "INTELSAT 21 (IS-21)", "OBJECT_ID": "2012-045A", "EPOCH": "2025-11-30T18:42:12.580128", "MEAN_MOTION": 1.00270121, "ECCENTRICITY": 0.0001936, "INCLINATION": 0.0554, "RA_OF_ASC_NODE": 92.4765, "ARG_OF_PERICENTER": 157.3184, "MEAN_ANOMALY": 42.6735, "EPHEMERIS_TYPE": 0, "CLASSIFICATION_TYPE": "U", "NORAD_CAT_ID": 38749, "ELEMENT_SET_NO": 999, "REV_AT_EPOCH": 4853, "BSTAR": 0, "MEAN_MOTION_DOT": -2.63e-06, "MEAN_MOTION_DDOT": 0, "GROUP": "intelsat"}, "tle": {"line1": "1 38749U 12045A   25334.77931227 -.00000263  00000+0  00000+0 0  9998", "line2": "2 38749   0.0554  92.4765 0001936 157.3184  42.6735  1.00270121 48539"}}, "geometry": {"type": "Point", "coordinates": [71.96872109190733, 0.00713303563963756]}}, {"type": "Feature", "properties": {"norad_id": 38867, "name": "INTELSAT 23 (IS-23)", "group": "intelsat", "lat": 0.009939519045971033, "lon": 76.95433276042453, "alt_km": 35791.282351575435, "timestamp": "2025-12-01T03:58:49.229649+00:00", "meta": {"OBJECT_NAME": "INTELSAT 23 (IS-23)", "OBJECT_ID": "2012-057A", "EPOCH": "2025-11-30T18:43:42.436128", "MEAN_MOTION": 1.00271218, "ECCENTRICITY": 0.0001785, "INCLINATION": 0.0406, "RA_OF_ASC_NODE": 128.1305, "ARG_OF_PERICENTER": 80.0692, "MEAN_ANOMALY": 89.6427, "EPHEMERIS_TYPE": 0, "CLASSIFICATION_TYPE": "U", "NORAD_CAT_ID": 38867, "ELEMENT_SET_NO": 999, "REV_AT_EPOCH": 4796, "BSTAR": 0, "MEAN_MOTION_DOT": -2.63e-06, "MEAN_MOTION_DDOT": 0, "GROUP": "intelsat"}, "tle": {"line1": "1 38867U 12057A   25334.78035227 -.00000263  00000+0  00000+0 0  9998", "line2": "2 38867   0.0406 128.1305 0001785  80.0692  89.6427  1.00271218 47964"}}, "geometry": {"type": "Point", "coordinates": [76.95433276042453, 0.009939519045971033]}}, {"type": "Feature", "properties": {"norad_id": 39360, "name": "FM-6", "group": "intelsat", "lat": -0.013254434598785643, "lon": 13.804837725631847, "alt_km": 35797.27192108715, "timestamp": "2025-12-01T03:58:49.229671+00:00", "meta": {"OBJECT_NAME": "FM-6", "OBJECT_ID": "2013-058A", "EPOCH": "2025-11-30T16:42:57.549024", "MEAN_MOTION": 1.00273051, "ECCENTRICITY": 0.00029, "INCLINATION": 0.0066, "RA_OF_ASC_NODE": 127.6111, "ARG_OF_PERICENTER": 47.4986, "MEAN_ANOMALY": 29.3056, "EPHEMERIS_TYPE": 0, "CLASSIFICATION_TYPE": "U", "NORAD_CAT_ID": 39360, "ELEMENT_SET_NO": 999, "REV_AT_EPOCH": 4408, "BSTAR": 0, "MEAN_MOTION_DOT": 4e-08, "MEAN_MOTION_DDOT": 0, "GROUP": "intelsat"}, "tle": {"line1": "1 39360U 13058A   25334.69649941  .00000004  00000+0  00000+0 0  9995", "line2": "2 39360   0.0066 127.6111 0002900  47.4986  29.3056  1.00273051 44083"}}, "geometry": {"type": "Point", "coordinates": [13.804837725631847, -0.013254434598785643]}}, {"type": "Feature", "properties": {"norad_id": 40271, "name": "INTELSAT 30 (IS-30)", "group": "intelsat", "lat": 0.022407053024051514, "lon": 34.923061429086616, "alt_km": 35781.805940989114, "timestamp": "2025-12-01T03:58:49.229697+00:00", "meta": {"OBJECT_NAME": "INTELSAT 30 (IS-30)", "OBJECT_ID": "2014-062A", "EPOCH": "2025-11-30T13:23:28.748832", "MEAN_MOTION": 1.00275608, "ECCENTRICITY": 0.0001094, "INCLINATION": 0.0121, "RA_OF_ASC_NODE": 357.5615, "ARG_OF_PERICENTER": 83.3303, "MEAN_ANOMALY": 94.6276, "EPHEMERIS_TYPE": 0, "CLASSIFICATION_TYPE": "U", "NORAD_CAT_ID": 40271, "ELEMENT_SET_NO": 999, "REV_AT_EPOCH": 479, "BSTAR": 0, "MEAN_MOTION_DOT": -1.3e-06, "MEAN_MOTION_DDOT": 0, "GROUP": "intelsat"}, "tle": {"line1": "1 40271U 14062A   25334.55797163 -.00000130  00000+0  00000+0 0  9990", "line2": "2 40271   0.0121 357.5615 0001094  83.3303  94.6276  1.00275608  4799"}}, "geometry": {"type": "Point", "coordinates": [34.923061429086616, 0.022407053024051514]}}, {"type": "Feature", "properties": {"norad_id": 40333, "name": "DIRECTV 14", "group": "intelsat", "lat": 0.03371822529409799, "lon": 30.735304474697568, "alt_km": 35787.83121325827, "timestamp": "2025-12-01T03:58:49.229710+00:00", "meta": {"OBJECT_NAME": "DIRECTV 14", "OBJECT_ID": "2014-078B", "EPOCH": "2025-11-30T13:22:13.870272", "MEAN_MOTION": 1.00269368, "ECCENTRICITY": 2.58e-05, "INCLINATION": 0.015, "RA_OF_ASC_NODE": 322.9245, "ARG_OF_PERICENTER": 234.6147, "MEAN_ANOMALY": 333.4849, "EPHEMERIS_TYPE": 0, "CLASSIFICATION_TYPE": "U", "NORAD_CAT_ID": 40333, "ELEMENT_SET_NO": 999, "REV_AT_EPOCH": 4005, "BSTAR": 0, "MEAN_MOTION_DOT": -1.04e-06, "MEAN_MOTION_DDOT": 0, "GROUP": "intelsat"}, "tle": {"line1": "1 40333U 14078B   25334.55710498 -.00000104  00000+0  00000+0 0  9993", "line2": "2 40333   0.0150 322.9245 0000258 234.6147 333.4849  1.00269368 40058"}}, "geometry": {"type": "Point", "coordinates": [30.735304474697568, 0.03371822529409799]}}, {"type": "Feature", "properties": {"norad_id": 40663, "name": "DIRECTV 15", "group": "intelsat", "lat": 0.005572422694319287, "lon": 27.096972641728133, "alt_km": 35787.2659474875, "timestamp": "2025-12-01T03:58:49.229726+00:00", "meta": {"OBJECT_NAME": "DIRECTV 15", "OBJECT_ID": "2015-026A", "EPOCH": "2025-11-30T15:03:37.536192", "MEAN_MOTION": 1.00270486, "ECCENTRICITY": 1.96e-05, "INCLINATION": 0.0395, "RA_OF_ASC_NODE": 107.4357, "ARG_OF_PERICENTER": 110.5985, "MEAN_ANOMALY": 334.7656, "EPHEMERIS_TYPE": 0, "CLASSIFICATION_TYPE": "U", "NORAD_CAT_ID": 40663, "ELEMENT_SET_NO": 999, "REV_AT_EPOCH": 3847, "BSTAR": 0, "MEAN_MOTION_DOT": -8.1e-07, "MEAN_MOTION_DDOT": 0, "GROUP": "intelsat"}, "tle": {"line1": "1 40663U 15026A   25334.62751778 -.00000081  00000+0  00000+0 0  9991", "line2": "2 40663   0.0395 107.4357 0000196 110.5985 334.7656  1.00270486 38474"}}, "geometry": {"type": "Point", "coordinates": [27.096972641728133, 0.005572422694319287]}}]}